Organization ID,Organization Name,Address,City,State,Zip Code,Administrator,Program Type,Users
1,Torres Ltd,158 Elizabeth Cape,Markfort,MD,56958,John Henderson,Nonprofit,"[124, 221, 438, 463, 560]"
2,Ward-Riley,4505 Adams Shoal Apt. 328,North Elizabethburgh,OR,71129,Jason Kelly,School,"[1, 160, 193, 238, 482, 533, 663, 669, 686, 749, 772, 813]"
3,"Conway, Morton and Johnson",863 Tina Stream,Andreamouth,IA,95083,Kevin Brown,Other,"[164, 317, 512, 698, 767]"
4,Weber LLC,91980 Kimberly Coves,Lake Wendy,NV,75171,Margaret Fritz,School,"[16, 25, 65, 102, 155, 257, 271, 284, 314, 417, 567, 665, 721, 730, 835, 845, 886, 979]"
5,"Rogers, Ramsey and Dennis",7333 Joshua River,Port Shawn,CA,20029,Sean Vasquez,Other,"[31, 67, 68, 76, 228, 378, 456, 812]"
6,"Strickland, Robinson and Robinson",437 Kathryn Street,Justinhaven,NJ,46283,Heather Fleming,School,"[46, 203, 219, 266, 355, 363, 428, 577, 598, 892]"
7,"Smith, Hamilton and Hayes",124 Bass Wells,South Kevin,NH,29180,Alison Martin,Nonprofit,"[36, 100, 229, 341, 493, 563, 718, 805, 814, 951, 984]"
8,Morris-Curry,011 Williams Loop Apt. 529,North Alexandraburgh,ME,55162,Amanda George,School,"[79, 105, 137, 304, 349, 374, 413, 488, 508, 510, 570, 590, 644, 799, 848]"
9,Bowers Ltd,1430 Smith Meadows Apt. 391,Ryanchester,DE,88215,Nathan Burton,School,"[330, 551, 554, 582, 600, 602, 901, 959]"
10,White Inc,73321 Patterson Forks,South Kurtville,SD,93494,Mario Johnson,Other,"[19, 87, 112, 130, 253, 300, 514, 649, 766, 801, 803]"
11,Mathis Inc,93384 Krista Via,Ericabury,NJ,50058,Diana West,School,"[18, 370, 494, 572, 689, 704, 737, 779, 786, 913, 921, 966]"
12,Mayo-Sanchez,04182 Jessica Court Apt. 510,Tonyborough,MI,08881,Ann Jones,School,"[198, 201, 251, 401, 405, 458, 462, 484, 748, 887, 981]"
13,Gordon and Sons,0612 Steven Knolls,Lake Dustin,DE,02022,Jamie Bowers,Nonprofit,"[91, 146, 196, 231, 283, 427, 552, 633, 828, 911, 994]"
14,"Howard, Wilson and Sanchez",45839 Peggy Manor,Torresshire,NH,77372,Noah Dunn,Nonprofit,"[217, 400, 457, 550, 610, 670, 734, 808, 982]"
15,Greene Ltd,2370 Brian Port,East Andrew,NC,33414,Troy Fisher,Nonprofit,"[116, 276, 379, 383, 650, 652, 854]"
16,"Kirk, Carroll and Bell",424 Yates Bridge Suite 936,Lake Deniseport,LA,78517,Ashley Williams,School,"[63, 75, 208, 215, 335, 366, 467, 472, 666, 762, 784, 841, 899, 929, 978]"
17,"Macdonald, Mitchell and Austin",4449 Gordon Square Apt. 126,Michealhaven,MT,17328,Joseph Figueroa,Other,"[86, 258, 326, 350, 392, 394, 404, 459, 746, 819]"
18,Smith and Sons,138 Kyle Isle,Millerchester,IA,87600,Bradley Anderson,School,"[40, 44, 60, 84, 265, 308, 345, 384, 451, 485, 760, 793]"
19,Young Ltd,9495 Mejia Drive,Suzannestad,ID,45109,Melissa Johnson,Nonprofit,"[11, 178, 307, 402, 410, 568, 614, 645, 729, 753, 807, 896]"
20,"Brown, Gonzalez and Jimenez",809 Ramirez Path,East Richard,NM,42431,Deborah Brown,Nonprofit,"[26, 202, 220, 224, 371, 390, 465, 499, 616, 687, 715]"
21,"Wright, Mccarthy and Doyle",70119 Hughes Oval,Davisland,NV,81715,John Jones,Nonprofit,"[81, 225, 241, 297, 546, 578, 639, 656, 992]"
22,"Griffin, Robinson and Blackwell",41706 Kristi Summit,West Jessica,WV,16054,Ryan Reynolds,Nonprofit,"[56, 200, 339, 422, 553, 571, 824, 902]"
23,Watson Group,23148 Fisher Branch Apt. 817,Angelaport,NV,54755,Joseph Wilson,School,"[15, 89, 412, 419, 562, 621, 634, 637, 659, 756, 810]"
24,Jones and Sons,39359 Harris Manors,Lake Emilybury,CA,57226,Debra Pearson,Other,"[292, 309, 424, 447, 642, 667, 735, 839, 963]"
25,Hill LLC,6630 Christian Tunnel,Sandrafort,AZ,82516,Dennis Green,Other,"[34, 131, 169, 230, 244, 414, 595, 632, 714, 833, 893]"
26,King-Lang,6911 Justin Stravenue Suite 081,Stephanieville,AZ,31824,Colton Christensen,School,"[99, 114, 135, 377, 411, 433, 612, 758, 846, 908]"
27,"Byrd, Le and Ruiz",509 Johnson Parks,Daniellemouth,NV,52025,Rebecca Rodriguez,Other,"[154, 415, 601, 628, 895]"
28,Dixon-Anderson,301 Robertson Run,Ruizview,OR,27152,Andre Johnson,School,"[58, 151, 204, 232, 478, 526, 791, 918, 936, 980]"
29,"Johnson, Griffin and Perez",357 Smith Club Apt. 311,Moralesport,AZ,39900,John Hicks,Other,"[8, 13, 38, 386, 469, 627, 796]"
30,Rosario-Smith,99268 Rodgers Parks Apt. 665,Smithport,MI,50480,Sara Cordova,School,"[23, 42, 139, 315, 367, 531, 558, 593, 782, 864, 883, 939]"
31,Walker and Sons,82150 Nguyen Plain Apt. 796,North Joshua,NM,14533,Timothy Howard,School,"[62, 157, 187, 316, 473, 691, 694, 739, 820, 838, 928, 941, 942]"
32,Webb Inc,34004 Carter Hollow Suite 326,Dianaberg,AK,08368,Ms. Laura Mercer,Nonprofit,"[71, 141, 254, 396, 468, 573, 740, 967]"
33,Hernandez PLC,61714 Lee Stream,Lopezland,ND,30814,Jonathan Juarez,Nonprofit,"[39, 109, 126, 183, 197, 293, 504, 732, 822, 827]"
34,"Hall, Nielsen and Young",4879 Shelly Avenue Suite 647,Port Shane,SD,03162,Dr. Melvin Jackson MD,Other,"[24, 78, 167, 263, 435, 453, 498, 565, 679, 728]"
35,Stephens PLC,863 Robert Oval Apt. 004,East Davidfort,MT,03466,Mike Jones,Other,"[20, 98, 104, 353, 716, 837]"
36,Carson-Acevedo,9830 Wright Tunnel,Tylertown,OK,58339,Teresa Ayers,School,"[49, 323, 369, 480, 635, 648, 662, 742, 769, 881]"
37,Ali Ltd,9283 Taylor Squares Apt. 136,North Danielle,GA,38360,Rebecca Martin,Other,"[66, 177, 191, 325, 407, 477, 542, 580, 806, 869, 997]"
38,"West, Jones and Rogers",0321 Golden Land Suite 945,Sloanhaven,MS,70568,Sarah Gonzalez,School,"[336, 356, 545, 622, 788, 926, 953, 961, 965]"
39,"Anderson, Dunn and Mclean",395 Scott Forest Apt. 035,Cynthiatown,ID,64214,Mrs. Stephanie Burch,Other,"[118, 188, 443, 479, 513, 566, 630, 703, 821]"
40,Jenkins Ltd,6153 Lee Branch Apt. 590,North Melissafurt,WV,42270,Patrick Bell,School,"[2, 351, 360, 651, 804, 868]"
41,Bruce-Whitehead,08143 Ryan Knoll,New Joannashire,WA,15875,April Orr,Nonprofit,"[158, 294, 362, 376, 596, 783]"
42,Barnes Group,57512 Dominique Ridges,East Kathleenfort,MD,37982,Terry Nguyen,Other,"[159, 237, 538, 789, 792, 945]"
43,"Chan, Hooper and Martinez",3763 Melinda Underpass Suite 464,East John,MI,86501,Valerie Wells,Nonprofit,"[149, 273, 288, 409, 429, 606, 617, 619, 958, 964, 975]"
44,Miller LLC,923 Christopher Row Apt. 857,Port Georgechester,IN,59743,Robert Davis,School,"[96, 115, 382, 421, 505, 646, 843, 993]"
45,Tapia-Ramsey,9243 Edwards Lakes,Crystalshire,OH,18823,Abigail Mendoza,Other,"[252, 439, 925]"
46,Davis-Williams,8897 Bradley Square Suite 020,Elizabethchester,CO,23598,Christopher Miller,Other,"[55, 92, 117, 152, 173, 240, 426, 440, 647, 660, 876, 954, 956, 962]"
47,Murphy-Kelly,68432 Leslie Spur,North Lisa,CT,90449,Samantha Horn,School,"[90, 182, 358, 549, 717, 849, 857, 989]"
48,Gaines and Sons,3973 Jackson Crossing Apt. 164,Wellsmouth,NC,19190,Karen Brown,Other,"[125, 359, 540, 681]"
49,Perez Ltd,20184 Laura Locks,New Tina,MO,28074,Shelley Smith,Other,"[37, 111, 147, 213, 227, 385, 695, 754, 781, 842, 882, 885, 938, 947]"
50,Oneal PLC,427 Charles Islands Apt. 232,East Christopher,SD,47098,Mary Jackson,Nonprofit,"[10, 278, 442, 476, 534, 587, 774, 840, 855, 898]"
51,"Arnold, Dunn and Stewart",354 Porter Fall,Brianberg,WI,12470,James Johnson,Nonprofit,"[162, 176, 190, 245, 321, 682, 685, 731, 866, 924, 931, 934]"
52,Brown-Porter,943 Alyssa Plain,New Johnville,TX,61017,Barbara Kelly,School,"[52, 97, 264, 333, 393, 491, 574, 584, 603, 653, 795, 844, 949, 955]"
53,Clark and Sons,486 Freeman Bridge Apt. 081,Griffithville,NM,06391,Chad Leon,Other,"[51, 120, 171, 243, 289, 340, 348, 557, 747, 875]"
54,"Wilkinson, Dennis and Martin",11363 Hunter Path Apt. 375,West Danafort,ND,25900,John Cervantes,Other,"[218, 285, 322, 437, 629, 688, 712, 905]"
55,Galvan-Jones,06169 Palmer Ridges,Lauraview,NJ,90723,Amanda Garcia,Nonprofit,"[140, 161, 185, 234, 423, 509, 517, 859, 889, 903]"
56,Carter-Yoder,98561 Jason Dam Suite 484,Lake Lukeburgh,GA,15697,Robyn Johnson,Nonprofit,"[12, 57, 165, 530, 556, 569, 696, 802, 884]"
57,"Vincent, Duarte and Nguyen",31658 Megan Pass,Raymondburgh,VA,62274,Heather Mullins,Nonprofit,"[32, 108, 305, 492, 495, 700, 752, 765, 867, 927]"
58,"Garrison, Schmidt and Thompson",98152 John Cliffs,Brittanyside,RI,19879,Joshua Levine,School,"[41, 93, 186, 346, 475, 948]"
59,Johnston-Holmes,496 Samantha Village Suite 527,Wendyside,WY,21054,Claudia Moore,Other,"[61, 398, 449, 588, 611, 798, 916]"
60,Fields-Morse,855 Matthew Union,Catherineton,KS,56338,Karen Coleman,School,"[142, 207, 211, 279, 327, 408, 586, 676, 874]"
61,"Weiss, Walker and Williams",19342 Juan Glen Apt. 185,Frenchberg,OH,30470,Dr. Cathy Patel,School,"[9, 22, 138, 184, 247, 506, 515, 664, 826, 860, 944]"
62,Brown-Vargas,167 Jonathan Mission Apt. 857,East Bradley,AL,43254,Angela Morris,Nonprofit,"[17, 452, 503, 519, 581, 861, 974]"
63,Wilson-Werner,7895 Salinas Islands Apt. 820,Kevinstad,CT,39877,Cheryl Smith,Nonprofit,"[121, 172, 262, 436, 615, 654, 684, 720, 946]"
64,"Roy, Johnson and Carter",62925 Nguyen Greens Apt. 462,Lake Jimmouth,NJ,83665,Patricia Clark,School,"[136, 267, 352, 425, 764, 973]"
65,Reed Inc,8489 Miguel Circle,Lozanofort,LA,69400,Casey Brown,Other,"[21, 209, 522, 719, 724, 755, 800, 862, 900, 922, 977]"
66,"Gregory, Woodard and Martinez",83669 Horton Lock,North Jenniferborough,MI,86066,Kimberly Davis,School,"[27, 83, 107, 282, 343, 544, 576, 594, 624, 640, 658]"
67,Martinez and Sons,33523 Stewart Prairie Apt. 648,Lake Abigailfurt,DE,36130,Scott Yang,Other,"[4, 33, 110, 128, 255, 274, 287, 311, 375, 445, 450, 455, 486, 502, 763, 785, 818, 930, 976]"
68,James-Mueller,2861 Stafford Locks Apt. 262,Andreaview,DC,09154,Nancy Christensen,Other,"[53, 199, 222, 291, 373, 585, 761, 832, 909]"
69,"Hall, Baker and Moore",01334 Martin Skyway Apt. 802,East Abigailfurt,AK,74797,Gary Greene,School,"[113, 210, 235, 301, 446, 537, 604, 607, 725, 775, 831, 932]"
70,"Decker, Parks and Jackson",78541 Kristopher Plaza Suite 051,Courtneystad,OR,82179,Sandy Patel,School,"[74, 168, 299, 518, 541, 547, 693, 726, 738, 815, 850, 907]"
71,"Robinson, Garza and Gibson",45642 Michelle Canyon Apt. 695,South Samantha,IA,52609,Eileen Smith,Other,"[7, 119, 127, 269, 406, 609, 631, 873, 877, 912, 990]"
72,Schroeder and Sons,7485 Lopez Forge,Diazstad,MN,34238,Lori Roberson,Nonprofit,"[82, 122, 290, 471, 489, 751, 879, 894, 933]"
73,"Combs, Lloyd and Wells",542 James Mission Suite 424,Brentside,AZ,53095,Vanessa Sandoval,Other,"[181, 216, 302, 332, 391, 500, 543, 608, 722, 741, 937, 968]"
74,"Lee, Walker and Villegas",557 Nelson Pines,Eileenshire,VA,41751,Thomas Martinez MD,Nonprofit,"[54, 73, 194, 470, 516, 858, 915, 971, 995]"
75,French Ltd,10298 Michael Estate,Larsenstad,SC,88725,Anthony Benson,Nonprofit,"[72, 134, 256, 365, 368, 487, 592, 697, 744, 745, 988, 996]"
76,"Greene, Castro and Johnson",36295 Singh Well Suite 770,Tuckerburgh,VT,31053,Scott Wilson,Nonprofit,"[286, 342, 416, 434, 583, 623, 677, 768, 777, 834]"
77,Allen and Sons,5000 Daniel Street Suite 674,Rhodesberg,AR,51701,Brendan Peters,Other,"[233, 324, 403, 461, 707, 809, 817, 952, 972]"
78,Klein-Avila,85158 Amy Valley,Greenburgh,ND,54075,Melissa Ford,Nonprofit,"[35, 236, 638, 727, 888]"
79,Steele Group,075 Ian Way,New David,MT,17541,Megan Gomez,Nonprofit,"[3, 123, 145, 156, 246, 272, 281, 344, 418, 564, 683, 787, 829, 836, 906, 987]"
80,Wilson Group,7091 Gabriela Parkways Apt. 835,Fischerburgh,AZ,65661,Micheal Hurst,Nonprofit,"[48, 64, 129, 133, 212, 250, 380, 444, 539, 589, 620, 671, 713, 847, 943, 998]"
81,"Velazquez, Garrison and Rodriguez",65333 Maria Well,South Jennifer,NJ,77045,Joshua Lee,Other,"[77, 179, 561, 661, 678, 708, 816, 880, 904]"
82,"Curtis, Porter and Escobar",656 Garcia Circles Suite 420,North Michelle,OH,55805,Melanie Ali,School,"[143, 148, 150, 248, 298, 318, 579, 709, 891, 910]"
83,Harrison-Hawkins,4794 White Turnpike Suite 650,Michaelport,OK,63428,Kara Washington,Nonprofit,"[6, 195, 261, 388, 501, 520, 597, 605, 636, 830]"
84,George-Dean,114 Donna Lakes Apt. 724,Lake Andrewfort,KY,14785,Kelly Campbell,School,"[80, 144, 337, 525, 970, 999]"
85,Sanchez PLC,01032 Wright Plains,Brownbury,HI,81433,James Gonzales,Other,"[260, 420, 529, 559, 591, 655, 690, 780, 935]"
86,"Maxwell, Morales and Rocha",94222 Patricia Ports Apt. 254,Port Cynthia,NV,60515,Samantha Oconnor,Nonprofit,"[166, 175, 347, 464, 536, 736, 852, 890]"
87,Clark Ltd,239 Arnold Loop Suite 402,Elizabethmouth,MI,66305,Dr. Robert Berg,School,"[5, 59, 249, 364, 432, 521, 532, 555, 757]"
88,"Fowler, Castaneda and Mcgrath",397 Hays Pass Apt. 521,New Jackson,AR,32212,Suzanne Reilly,Nonprofit,"[28, 45, 189, 192, 226, 310, 331, 357, 397, 625, 668, 705, 853, 897]"
89,Garcia-Brewer,77900 Christine Alley Suite 148,South Malikbury,AK,35942,Judy Reyes,Other,"[88, 94, 103, 329, 483, 643, 680, 692, 706, 710]"
90,Barry and Sons,617 Bryan Trail,Port Scottmouth,AZ,33085,Stacy Zimmerman,School,"[30, 70, 223, 354, 497, 511, 524, 548, 599, 613, 701, 702, 723, 771, 797]"
91,"Mcfarland, Torres and Smith",623 Flynn Fork Apt. 099,Ashleybury,OR,25839,Donald Jones,Nonprofit,"[29, 101, 153, 206, 277, 320, 328, 466, 474, 496, 699, 759, 794, 863, 878, 969, 986]"
92,Hill Ltd,10713 Joseph Manor Apt. 746,Mitchellbury,GA,55716,Katie Ramirez,Other,"[14, 313, 319, 523, 770, 778, 865, 985]"
93,Wade-Gardner,186 Marshall Heights Apt. 467,Sylviatown,ND,25822,Wesley Fisher,Nonprofit,"[170, 214, 242, 259, 535, 733, 823, 856, 870, 983]"
94,"Nguyen, Nguyen and Mendoza",2370 Donna Lake Suite 412,Deckerbury,AZ,09498,Luis Day,Nonprofit,"[106, 174, 381, 389, 773, 790, 811, 871]"
95,"Martin, Nixon and Martinez",6256 Jones Summit Apt. 857,New Samantha,NE,30163,Ryan Hall,Nonprofit,"[50, 205, 430, 431, 454, 481, 641, 674, 743, 1000]"
96,Johnson LLC,868 Weaver Flats Apt. 425,New Sarah,NC,75165,Johnny Carlson,Other,"[43, 85, 95, 239, 275, 334, 338, 372, 395, 490, 528, 575, 626, 851, 914, 917]"
97,Kirby-Murphy,257 Michael Trail Suite 509,Reneemouth,MN,19850,Katherine Johnson,Nonprofit,"[163, 303, 441, 657, 673, 950, 957]"
98,Flores Inc,09059 Bradley Fork,Port Brianfort,NV,68621,Jason Martin,Nonprofit,"[268, 280, 295, 312, 387, 399, 527, 825, 919, 940]"
99,"Wolf, Johnson and Watts",2687 Willis Groves,New Paulport,RI,17754,Todd Nunez,Other,"[69, 296, 306, 448, 460, 618, 675, 711, 750, 872, 920]"
100,Richardson and Sons,95669 Bryce Route,North Heather,RI,38340,Carol Cline,Other,"[47, 132, 180, 270, 361, 507, 672, 776, 923, 960, 991]"
